[{"OBJECT_NAME":"ONEWEB-0628","OBJECT_ID":"2023-004AF","EPOCH":"2025-08-13T13:24:02.706624","MEAN_MOTION":13.12444479,"ECCENTRICITY":0.0002121,"INCLINATION":87.8864,"RA_OF_ASC_NODE":51.7902,"ARG_OF_PERICENTER":108.5632,"MEAN_ANOMALY":251.5727,"EPHEMERIS_TYPE":0,"CLASSIFICATION_TYPE":"U","NORAD_CAT_ID":55169,"ELEMENT_SET_NO":999,"REV_AT_EPOCH":12768,"BSTAR":-0.00036611,"MEAN_MOTION_DOT":-1.19e-6,"MEAN_MOTION_DDOT":0},{"OBJECT_NAME":"ONEWEB-0629","OBJECT_ID":"2023-004AG","EPOCH":"2025-08-13T13:43:41.032416","MEAN_MOTION":13.17650676,"ECCENTRICITY":0.0002119,"INCLINATION":87.9034,"RA_OF_ASC_NODE":67.0969,"ARG_OF_PERICENTER":90.5943,"MEAN_ANOMALY":269.5431,"EPHEMERIS_TYPE":0,"CLASSIFICATION_TYPE":"U","NORAD_CAT_ID":55170,"ELEMENT_SET_NO":999,"REV_AT_EPOCH":12707,"BSTAR":-6.1203e-6,"MEAN_MOTION_DOT":1.1e-7,"MEAN_MOTION_DDOT":0},{"OBJECT_NAME":"ONEWEB-0631","OBJECT_ID":"2023-004AH","EPOCH":"2025-08-13T11:56:48.862464","MEAN_MOTION":13.1868827,"ECCENTRICITY":0.0001311,"INCLINATION":87.9136,"RA_OF_ASC_NODE":36.541,"ARG_OF_PERICENTER":99.3993,"MEAN_ANOMALY":260.7287,"EPHEMERIS_TYPE":0,"CLASSIFICATION_TYPE":"U","NORAD_CAT_ID":55171,"ELEMENT_SET_NO":999,"REV_AT_EPOCH":12912,"BSTAR":0.00012659,"MEAN_MOTION_DOT":6.3e-7,"MEAN_MOTION_DDOT":0},{"OBJECT_NAME":"ONEWEB-0709","OBJECT_ID":"2023-004AJ","EPOCH":"2025-08-13T13:49:05.537856","MEAN_MOTION":13.1141819,"ECCENTRICITY":0.0001108,"INCLINATION":87.8787,"RA_OF_ASC_NODE":82.3993,"ARG_OF_PERICENTER":54.335,"MEAN_ANOMALY":305.7881,"EPHEMERIS_TYPE":0,"CLASSIFICATION_TYPE":"U","NORAD_CAT_ID":55172,"ELEMENT_SET_NO":999,"REV_AT_EPOCH":12555,"BSTAR":0.0001406,"MEAN_MOTION_DOT":6.3e-7,"MEAN_MOTION_DDOT":0},{"OBJECT_NAME":"ONEWEB-0710","OBJECT_ID":"2023-004AK","EPOCH":"2025-08-13T14:04:21.599040","MEAN_MOTION":13.17648684,"ECCENTRICITY":0.000175,"INCLINATION":87.9025,"RA_OF_ASC_NODE":67.0922,"ARG_OF_PERICENTER":92.8897,"MEAN_ANOMALY":267.2435,"EPHEMERIS_TYPE":0,"CLASSIFICATION_TYPE":"U","NORAD_CAT_ID":55173,"ELEMENT_SET_NO":999,"REV_AT_EPOCH":12707,"BSTAR":-5.0145e-5,"MEAN_MOTION_DOT":-7.0e-8,"MEAN_MOTION_DDOT":0},{"OBJECT_NAME":"ONEWEB-0711","OBJECT_ID":"2023-004AL","EPOCH":"2025-08-13T13:07:34.455648","MEAN_MOTION":13.11414545,"ECCENTRICITY":0.0001831,"INCLINATION":87.8785,"RA_OF_ASC_NODE":82.3721,"ARG_OF_PERICENTER":108.9475,"MEAN_ANOMALY":251.1851,"EPHEMERIS_TYPE":0,"CLASSIFICATION_TYPE":"U","NORAD_CAT_ID":55174,"ELEMENT_SET_NO":999,"REV_AT_EPOCH":12551,"BSTAR":-0.0012713,"MEAN_MOTION_DOT":-4.38e-6,"MEAN_MOTION_DDOT":0},{"OBJECT_NAME":"ONEWEB-0713","OBJECT_ID":"2023-004AM","EPOCH":"2025-08-13T13:34:26.239872","MEAN_MOTION":13.11418135,"ECCENTRICITY":0.0001706,"INCLINATION":87.8786,"RA_OF_ASC_NODE":82.3763,"ARG_OF_PERICENTER":93.0037,"MEAN_ANOMALY":267.1287,"EPHEMERIS_TYPE":0,"CLASSIFICATION_TYPE":"U","NORAD_CAT_ID":55175,"ELEMENT_SET_NO":999,"REV_AT_EPOCH":12550,"BSTAR":-0.00094458,"MEAN_MOTION_DOT":-3.22e-6,"MEAN_MOTION_DDOT":0},{"OBJECT_NAME":"ONEWEB-0715","OBJECT_ID":"2023-004AN","EPOCH":"2025-08-13T13:27:05.891904","MEAN_MOTION":13.11416969,"ECCENTRICITY":0.0001392,"INCLINATION":87.8786,"RA_OF_ASC_NODE":82.3777,"ARG_OF_PERICENTER":81.0842,"MEAN_ANOMALY":279.0443,"EPHEMERIS_TYPE":0,"CLASSIFICATION_TYPE":"U","NORAD_CAT_ID":55176,"ELEMENT_SET_NO":999,"REV_AT_EPOCH":12554,"BSTAR":-0.001629,"MEAN_MOTION_DOT":-5.65e-6,"MEAN_MOTION_DDOT":0},{"OBJECT_NAME":"ONEWEB-0716","OBJECT_ID":"2023-004AP","EPOCH":"2025-08-13T13:54:36.716832","MEAN_MOTION":13.17648547,"ECCENTRICITY":0.0001921,"INCLINATION":87.9026,"RA_OF_ASC_NODE":67.0933,"ARG_OF_PERICENTER":81.862,"MEAN_ANOMALY":278.2729,"EPHEMERIS_TYPE":0,"CLASSIFICATION_TYPE":"U","NORAD_CAT_ID":55177,"ELEMENT_SET_NO":999,"REV_AT_EPOCH":12707,"BSTAR":1.248e-5,"MEAN_MOTION_DOT":1.8e-7,"MEAN_MOTION_DDOT":0},{"OBJECT_NAME":"ONEWEB-0717","OBJECT_ID":"2023-004AQ","EPOCH":"2025-08-13T13:30:18.671904","MEAN_MOTION":13.17651304,"ECCENTRICITY":0.0001665,"INCLINATION":87.9032,"RA_OF_ASC_NODE":67.0567,"ARG_OF_PERICENTER":112.3127,"MEAN_ANOMALY":247.8181,"EPHEMERIS_TYPE":0,"CLASSIFICATION_TYPE":"U","NORAD_CAT_ID":55178,"ELEMENT_SET_NO":999,"REV_AT_EPOCH":12712,"BSTAR":0.00015208,"MEAN_MOTION_DOT":7.2e-7,"MEAN_MOTION_DDOT":0},{"OBJECT_NAME":"ONEWEB-0719","OBJECT_ID":"2023-004AR","EPOCH":"2025-08-13T13:44:54.994272","MEAN_MOTION":13.17648622,"ECCENTRICITY":0.0002004,"INCLINATION":87.9031,"RA_OF_ASC_NODE":67.0376,"ARG_OF_PERICENTER":85.8352,"MEAN_ANOMALY":274.3009,"EPHEMERIS_TYPE":0,"CLASSIFICATION_TYPE":"U","NORAD_CAT_ID":55179,"ELEMENT_SET_NO":999,"REV_AT_EPOCH":12707,"BSTAR":0.00010378,"MEAN_MOTION_DOT":5.3e-7,"MEAN_MOTION_DDOT":0},{"OBJECT_NAME":"ONEWEB-0530","OBJECT_ID":"2023-029A","EPOCH":"2025-08-13T14:14:49.994016","MEAN_MOTION":13.20770453,"ECCENTRICITY":0.0002206,"INCLINATION":87.9303,"RA_OF_ASC_NODE":335.7785,"ARG_OF_PERICENTER":111.3402,"MEAN_ANOMALY":248.7967,"EPHEMERIS_TYPE":0,"CLASSIFICATION_TYPE":"U","NORAD_CAT_ID":55796,"ELEMENT_SET_NO":999,"REV_AT_EPOCH":12054,"BSTAR":2.3731e-5,"MEAN_MOTION_DOT":2.3e-7,"MEAN_MOTION_DDOT":0},{"OBJECT_NAME":"ONEWEB-0534","OBJECT_ID":"2023-029B","EPOCH":"2025-08-13T13:56:40.139232","MEAN_MOTION":13.20769987,"ECCENTRICITY":0.0002027,"INCLINATION":87.9293,"RA_OF_ASC_NODE":335.7872,"ARG_OF_PERICENTER":96.6396,"MEAN_ANOMALY":263.4968,"EPHEMERIS_TYPE":0,"CLASSIFICATION_TYPE":"U","NORAD_CAT_ID":55797,"ELEMENT_SET_NO":999,"REV_AT_EPOCH":12123,"BSTAR":-2.5298e-5,"MEAN_MOTION_DOT":3.0e-8,"MEAN_MOTION_DDOT":0},{"OBJECT_NAME":"ONEWEB-0556","OBJECT_ID":"2023-029C","EPOCH":"2025-08-13T14:05:44.643264","MEAN_MOTION":13.20772894,"ECCENTRICITY":0.0002767,"INCLINATION":87.9302,"RA_OF_ASC_NODE":335.7793,"ARG_OF_PERICENTER":98.7944,"MEAN_ANOMALY":261.3503,"EPHEMERIS_TYPE":0,"CLASSIFICATION_TYPE":"U","NORAD_CAT_ID":55798,"ELEMENT_SET_NO":999,"REV_AT_EPOCH":12054,"BSTAR":0.00018185,"MEAN_MOTION_DOT":8.7e-7,"MEAN_MOTION_DDOT":0},{"OBJECT_NAME":"ONEWEB-0562","OBJECT_ID":"2023-029D","EPOCH":"2025-08-13T13:47:35.294784","MEAN_MOTION":13.20772387,"ECCENTRICITY":0.0002734,"INCLINATION":87.9289,"RA_OF_ASC_NODE":335.7723,"ARG_OF_PERICENTER":112.4763,"MEAN_ANOMALY":247.666,"EPHEMERIS_TYPE":0,"CLASSIFICATION_TYPE":"U","NORAD_CAT_ID":55799,"ELEMENT_SET_NO":999,"REV_AT_EPOCH":12054,"BSTAR":0.00039313,"MEAN_MOTION_DOT":1.73e-6,"MEAN_MOTION_DDOT":0},{"OBJECT_NAME":"ONEWEB-0563","OBJECT_ID":"2023-029E","EPOCH":"2025-08-12T17:38:30.805728","MEAN_MOTION":13.20772527,"ECCENTRICITY":0.0002087,"INCLINATION":87.9299,"RA_OF_ASC_NODE":335.9566,"ARG_OF_PERICENTER":94.6023,"MEAN_ANOMALY":265.5349,"EPHEMERIS_TYPE":0,"CLASSIFICATION_TYPE":"U","NORAD_CAT_ID":55800,"ELEMENT_SET_NO":999,"REV_AT_EPOCH":12042,"BSTAR":5.7556e-5,"MEAN_MOTION_DOT":3.6e-7,"MEAN_MOTION_DDOT":0},{"OBJECT_NAME":"ONEWEB-0564","OBJECT_ID":"2023-029F","EPOCH":"2025-08-13T13:29:24.038592","MEAN_MOTION":13.20772365,"ECCENTRICITY":0.0002147,"INCLINATION":87.929,"RA_OF_ASC_NODE":335.7771,"ARG_OF_PERICENTER":108.283,"MEAN_ANOMALY":251.8537,"EPHEMERIS_TYPE":0,"CLASSIFICATION_TYPE":"U","NORAD_CAT_ID":55801,"ELEMENT_SET_NO":999,"REV_AT_EPOCH":12054,"BSTAR":0.00012957,"MEAN_MOTION_DOT":6.6e-7,"MEAN_MOTION_DDOT":0},{"OBJECT_NAME":"ONEWEB-0638","OBJECT_ID":"2023-029G","EPOCH":"2025-08-13T08:15:56.077056","MEAN_MOTION":13.14503999,"ECCENTRICITY":0.0002386,"INCLINATION":87.9087,"RA_OF_ASC_NODE":351.0325,"ARG_OF_PERICENTER":99.5397,"MEAN_ANOMALY":260.6002,"EPHEMERIS_TYPE":0,"CLASSIFICATION_TYPE":"U","NORAD_CAT_ID":55802,"ELEMENT_SET_NO":999,"REV_AT_EPOCH":11895,"BSTAR":0.00064375,"MEAN_MOTION_DOT":2.51e-6,"MEAN_MOTION_DDOT":0},{"OBJECT_NAME":"ONEWEB-0639","OBJECT_ID":"2023-029H","EPOCH":"2025-08-13T10:38:10.800384","MEAN_MOTION":13.19724348,"ECCENTRICITY":0.000202,"INCLINATION":87.9254,"RA_OF_ASC_NODE":6.1631,"ARG_OF_PERICENTER":61.9149,"MEAN_ANOMALY":298.2188,"EPHEMERIS_TYPE":0,"CLASSIFICATION_TYPE":"U","NORAD_CAT_ID":55803,"ELEMENT_SET_NO":999,"REV_AT_EPOCH":11831,"BSTAR":2.6507e-5,"MEAN_MOTION_DOT":2.4e-7,"MEAN_MOTION_DDOT":0},{"OBJECT_NAME":"ONEWEB-0640","OBJECT_ID":"2023-029J","EPOCH":"2025-08-13T13:58:27.132672","MEAN_MOTION":13.1450095,"ECCENTRICITY":0.0002483,"INCLINATION":87.9086,"RA_OF_ASC_NODE":350.972,"ARG_OF_PERICENTER":89.7953,"MEAN_ANOMALY":270.3461,"EPHEMERIS_TYPE":0,"CLASSIFICATION_TYPE":"U","NORAD_CAT_ID":55804,"ELEMENT_SET_NO":999,"REV_AT_EPOCH":11968,"BSTAR":0.00028392,"MEAN_MOTION_DOT":1.18e-6,"MEAN_MOTION_DDOT":0},{"OBJECT_NAME":"ONEWEB-0641","OBJECT_ID":"2023-029K","EPOCH":"2025-08-13T10:31:21.533952","MEAN_MOTION":13.1972459,"ECCENTRICITY":0.0001748,"INCLINATION":87.9256,"RA_OF_ASC_NODE":6.1356,"ARG_OF_PERICENTER":88.8587,"MEAN_ANOMALY":271.2746,"EPHEMERIS_TYPE":0,"CLASSIFICATION_TYPE":"U","NORAD_CAT_ID":55805,"ELEMENT_SET_NO":999,"REV_AT_EPOCH":11832,"BSTAR":7.8052e-5,"MEAN_MOTION_DOT":4.4e-7,"MEAN_MOTION_DDOT":0},{"OBJECT_NAME":"ONEWEB-0642","OBJECT_ID":"2023-029L","EPOCH":"2025-08-13T10:24:32.162976","MEAN_MOTION":13.19726608,"ECCENTRICITY":0.0001641,"INCLINATION":87.9248,"RA_OF_ASC_NODE":6.173,"ARG_OF_PERICENTER":65.3996,"MEAN_ANOMALY":294.7308,"EPHEMERIS_TYPE":0,"CLASSIFICATION_TYPE":"U","NORAD_CAT_ID":55806,"ELEMENT_SET_NO":999,"REV_AT_EPOCH":11831,"BSTAR":0.0002413,"MEAN_MOTION_DOT":1.1e-6,"MEAN_MOTION_DDOT":0},{"OBJECT_NAME":"ONEWEB-0643","OBJECT_ID":"2023-029M","EPOCH":"2025-08-13T09:35:50.790624","MEAN_MOTION":13.1450213,"ECCENTRICITY":0.0001345,"INCLINATION":87.9081,"RA_OF_ASC_NODE":350.9912,"ARG_OF_PERICENTER":78.64,"MEAN_ANOMALY":281.4881,"EPHEMERIS_TYPE":0,"CLASSIFICATION_TYPE":"U","NORAD_CAT_ID":55807,"ELEMENT_SET_NO":999,"REV_AT_EPOCH":11895,"BSTAR":0.00031804,"MEAN_MOTION_DOT":1.31e-6,"MEAN_MOTION_DDOT":0},{"OBJECT_NAME":"ONEWEB-0644","OBJECT_ID":"2023-029N","EPOCH":"2025-08-13T10:17:42.315936","MEAN_MOTION":13.19726284,"ECCENTRICITY":0.0001642,"INCLINATION":87.9254,"RA_OF_ASC_NODE":6.1803,"ARG_OF_PERICENTER":79.6472,"MEAN_ANOMALY":280.4845,"EPHEMERIS_TYPE":0,"CLASSIFICATION_TYPE":"U","NORAD_CAT_ID":55808,"ELEMENT_SET_NO":999,"REV_AT_EPOCH":11831,"BSTAR":0.00013214,"MEAN_MOTION_DOT":6.6e-7,"MEAN_MOTION_DDOT":0}]
